[{"OBJECT_NAME":"STARLINK-2379","OBJECT_ID":"2021-018M","EPOCH":"2024-10-27T17:39:44.021088","MEAN_MOTION":15.06413929,"ECCENTRICITY":0.0001494,"INCLINATION":53.054,"RA_OF_ASC_NODE":307.0194,"ARG_OF_PERICENTER":90.1486,"MEAN_ANOMALY":269.9674,"EPHEMERIS_TYPE":0,"CLASSIFICATION_TYPE":"U","NORAD_CAT_ID":47798,"ELEMENT_SET_NO":999,"REV_AT_EPOCH":20147,"BSTAR":0.00029756,"MEAN_MOTION_DOT":4.155e-5,"MEAN_MOTION_DDOT":0},{"OBJECT_NAME":"STARLINK-2380","OBJECT_ID":"2021-018N","EPOCH":"2024-10-27T09:36:44.019936","MEAN_MOTION":15.06404319,"ECCENTRICITY":0.0001468,"INCLINATION":53.0545,"RA_OF_ASC_NODE":308.5269,"ARG_OF_PERICENTER":96.6834,"MEAN_ANOMALY":263.4322,"EPHEMERIS_TYPE":0,"CLASSIFICATION_TYPE":"U","NORAD_CAT_ID":47799,"ELEMENT_SET_NO":999,"REV_AT_EPOCH":20176,"BSTAR":-3.3799e-5,"MEAN_MOTION_DOT":-7.85e-6,"MEAN_MOTION_DDOT":0},{"OBJECT_NAME":"STARLINK-2381","OBJECT_ID":"2021-018P","EPOCH":"2024-10-27T18:06:17.776224","MEAN_MOTION":15.06432188,"ECCENTRICITY":0.00016,"INCLINATION":53.0536,"RA_OF_ASC_NODE":306.9354,"ARG_OF_PERICENTER":76.2631,"MEAN_ANOMALY":283.8536,"EPHEMERIS_TYPE":0,"CLASSIFICATION_TYPE":"U","NORAD_CAT_ID":47800,"ELEMENT_SET_NO":999,"REV_AT_EPOCH":20149,"BSTAR":0.0012471,"MEAN_MOTION_DOT":0.00018359,"MEAN_MOTION_DDOT":0},{"OBJECT_NAME":"STARLINK-2383","OBJECT_ID":"2021-018R","EPOCH":"2024-10-27T12:04:42.049344","MEAN_MOTION":15.06414996,"ECCENTRICITY":0.0001486,"INCLINATION":53.0546,"RA_OF_ASC_NODE":333.0625,"ARG_OF_PERICENTER":85.5831,"MEAN_ANOMALY":274.5328,"EPHEMERIS_TYPE":0,"CLASSIFICATION_TYPE":"U","NORAD_CAT_ID":47802,"ELEMENT_SET_NO":999,"REV_AT_EPOCH":20144,"BSTAR":0.002068,"MEAN_MOTION_DOT":0.00030668,"MEAN_MOTION_DDOT":0},{"OBJECT_NAME":"STARLINK-2384","OBJECT_ID":"2021-018S","EPOCH":"2024-10-27T10:24:30.453120","MEAN_MOTION":15.06402886,"ECCENTRICITY":0.000157,"INCLINATION":53.0547,"RA_OF_ASC_NODE":308.3723,"ARG_OF_PERICENTER":90.8933,"MEAN_ANOMALY":269.2236,"EPHEMERIS_TYPE":0,"CLASSIFICATION_TYPE":"U","NORAD_CAT_ID":47803,"ELEMENT_SET_NO":999,"REV_AT_EPOCH":20177,"BSTAR":0.00058801,"MEAN_MOTION_DOT":8.488e-5,"MEAN_MOTION_DDOT":0},{"OBJECT_NAME":"STARLINK-2385","OBJECT_ID":"2021-018T","EPOCH":"2024-10-27T10:45:44.027136","MEAN_MOTION":15.06404016,"ECCENTRICITY":0.0001454,"INCLINATION":53.0545,"RA_OF_ASC_NODE":308.3096,"ARG_OF_PERICENTER":81.461,"MEAN_ANOMALY":278.6544,"EPHEMERIS_TYPE":0,"CLASSIFICATION_TYPE":"U","NORAD_CAT_ID":47804,"ELEMENT_SET_NO":999,"REV_AT_EPOCH":20177,"BSTAR":0.00035065,"MEAN_MOTION_DOT":4.946e-5,"MEAN_MOTION_DDOT":0},{"OBJECT_NAME":"STARLINK-2386","OBJECT_ID":"2021-018U","EPOCH":"2024-10-27T08:22:29.978976","MEAN_MOTION":15.06370021,"ECCENTRICITY":0.0001453,"INCLINATION":53.0542,"RA_OF_ASC_NODE":308.9952,"ARG_OF_PERICENTER":96.6286,"MEAN_ANOMALY":263.4868,"EPHEMERIS_TYPE":0,"CLASSIFICATION_TYPE":"U","NORAD_CAT_ID":47805,"ELEMENT_SET_NO":999,"REV_AT_EPOCH":20176,"BSTAR":-0.0001316,"MEAN_MOTION_DOT":-2.239e-5,"MEAN_MOTION_DDOT":0},{"OBJECT_NAME":"STARLINK-2387","OBJECT_ID":"2021-018V","EPOCH":"2024-10-27T18:01:38.184960","MEAN_MOTION":15.06396625,"ECCENTRICITY":0.0001716,"INCLINATION":53.0548,"RA_OF_ASC_NODE":321.9571,"ARG_OF_PERICENTER":81.7156,"MEAN_ANOMALY":278.4028,"EPHEMERIS_TYPE":0,"CLASSIFICATION_TYPE":"U","NORAD_CAT_ID":47806,"ELEMENT_SET_NO":999,"REV_AT_EPOCH":20127,"BSTAR":0.00075052,"MEAN_MOTION_DOT":0.00010914,"MEAN_MOTION_DDOT":0},{"OBJECT_NAME":"STARLINK-2388","OBJECT_ID":"2021-018W","EPOCH":"2024-10-27T09:48:42.512832","MEAN_MOTION":15.06405569,"ECCENTRICITY":0.0001383,"INCLINATION":53.054,"RA_OF_ASC_NODE":298.4821,"ARG_OF_PERICENTER":109.5546,"MEAN_ANOMALY":250.5592,"EPHEMERIS_TYPE":0,"CLASSIFICATION_TYPE":"U","NORAD_CAT_ID":47807,"ELEMENT_SET_NO":999,"REV_AT_EPOCH":20190,"BSTAR":0.00071826,"MEAN_MOTION_DOT":0.00010435,"MEAN_MOTION_DDOT":0},{"OBJECT_NAME":"STARLINK-2389","OBJECT_ID":"2021-018X","EPOCH":"2024-10-27T10:30:30.163104","MEAN_MOTION":15.06411699,"ECCENTRICITY":0.0001741,"INCLINATION":53.0556,"RA_OF_ASC_NODE":323.3581,"ARG_OF_PERICENTER":104.8505,"MEAN_ANOMALY":255.2676,"EPHEMERIS_TYPE":0,"CLASSIFICATION_TYPE":"U","NORAD_CAT_ID":47808,"ELEMENT_SET_NO":999,"REV_AT_EPOCH":20162,"BSTAR":0.000467,"MEAN_MOTION_DOT":6.683e-5,"MEAN_MOTION_DDOT":0},{"OBJECT_NAME":"STARLINK-2391","OBJECT_ID":"2021-018Z","EPOCH":"2024-10-27T12:49:08.994432","MEAN_MOTION":15.06410481,"ECCENTRICITY":0.0001797,"INCLINATION":53.0551,"RA_OF_ASC_NODE":337.9228,"ARG_OF_PERICENTER":86.6791,"MEAN_ANOMALY":273.4404,"EPHEMERIS_TYPE":0,"CLASSIFICATION_TYPE":"U","NORAD_CAT_ID":47810,"ELEMENT_SET_NO":999,"REV_AT_EPOCH":20142,"BSTAR":0.00042547,"MEAN_MOTION_DOT":6.063e-5,"MEAN_MOTION_DDOT":0},{"OBJECT_NAME":"STARLINK-2392","OBJECT_ID":"2021-018AA","EPOCH":"2024-10-27T10:35:07.594368","MEAN_MOTION":15.06400977,"ECCENTRICITY":0.000162,"INCLINATION":53.0535,"RA_OF_ASC_NODE":308.3406,"ARG_OF_PERICENTER":85.3413,"MEAN_ANOMALY":274.7761,"EPHEMERIS_TYPE":0,"CLASSIFICATION_TYPE":"U","NORAD_CAT_ID":47811,"ELEMENT_SET_NO":999,"REV_AT_EPOCH":20183,"BSTAR":0.00025667,"MEAN_MOTION_DOT":3.544e-5,"MEAN_MOTION_DDOT":0},{"OBJECT_NAME":"STARLINK-2393","OBJECT_ID":"2021-018AB","EPOCH":"2024-10-27T11:29:33.585216","MEAN_MOTION":15.06398303,"ECCENTRICITY":0.0001553,"INCLINATION":53.0539,"RA_OF_ASC_NODE":338.1713,"ARG_OF_PERICENTER":101.6981,"MEAN_ANOMALY":258.4182,"EPHEMERIS_TYPE":0,"CLASSIFICATION_TYPE":"U","NORAD_CAT_ID":47812,"ELEMENT_SET_NO":999,"REV_AT_EPOCH":20135,"BSTAR":0.00075665,"MEAN_MOTION_DOT":0.00011006,"MEAN_MOTION_DDOT":0},{"OBJECT_NAME":"STARLINK-2395","OBJECT_ID":"2021-018AD","EPOCH":"2024-10-27T11:41:28.972896","MEAN_MOTION":15.06407105,"ECCENTRICITY":0.0001669,"INCLINATION":53.0541,"RA_OF_ASC_NODE":328.1331,"ARG_OF_PERICENTER":96.5374,"MEAN_ANOMALY":263.5805,"EPHEMERIS_TYPE":0,"CLASSIFICATION_TYPE":"U","NORAD_CAT_ID":47814,"ELEMENT_SET_NO":999,"REV_AT_EPOCH":20156,"BSTAR":0.0010346,"MEAN_MOTION_DOT":0.00015165,"MEAN_MOTION_DDOT":0},{"OBJECT_NAME":"STARLINK-2396","OBJECT_ID":"2021-018AE","EPOCH":"2024-10-27T09:16:09.783840","MEAN_MOTION":15.06398233,"ECCENTRICITY":0.0001447,"INCLINATION":53.0538,"RA_OF_ASC_NODE":323.5826,"ARG_OF_PERICENTER":103.098,"MEAN_ANOMALY":257.0171,"EPHEMERIS_TYPE":0,"CLASSIFICATION_TYPE":"U","NORAD_CAT_ID":47815,"ELEMENT_SET_NO":999,"REV_AT_EPOCH":20155,"BSTAR":-0.00013106,"MEAN_MOTION_DOT":-2.233e-5,"MEAN_MOTION_DDOT":0},{"OBJECT_NAME":"STARLINK-2399","OBJECT_ID":"2021-018AF","EPOCH":"2024-10-27T11:04:19.346592","MEAN_MOTION":15.06399896,"ECCENTRICITY":0.0001508,"INCLINATION":53.0546,"RA_OF_ASC_NODE":328.2513,"ARG_OF_PERICENTER":94.3772,"MEAN_ANOMALY":265.7389,"EPHEMERIS_TYPE":0,"CLASSIFICATION_TYPE":"U","NORAD_CAT_ID":47816,"ELEMENT_SET_NO":999,"REV_AT_EPOCH":20149,"BSTAR":0.00035204,"MEAN_MOTION_DOT":4.966e-5,"MEAN_MOTION_DDOT":0}]