STARLINK-2379           
1 47798U 21018M   24301.73592617  .00004155  00000+0  29756-3 0  9993
2 47798  53.0540 307.0194 0001494  90.1486 269.9674 15.06413929201471
STARLINK-2380           
1 47799U 21018N   24301.40050949 -.00000785  00000+0 -33799-4 0  9995
2 47799  53.0545 308.5269 0001468  96.6834 263.4322 15.06404319201769
STARLINK-2381           
1 47800U 21018P   24301.75437241  .00018359  00000+0  12471-2 0  9996
2 47800  53.0536 306.9354 0001600  76.2631 283.8536 15.06432188201494
STARLINK-2383           
1 47802U 21018R   24301.50326446  .00030668  00000+0  20680-2 0  9993
2 47802  53.0546 333.0625 0001486  85.5831 274.5328 15.06414996201444
STARLINK-2384           
1 47803U 21018S   24301.43368580  .00008488  00000+0  58801-3 0  9993
2 47803  53.0547 308.3723 0001570  90.8933 269.2236 15.06402886201776
STARLINK-2385           
1 47804U 21018T   24301.44842624  .00004946  00000+0  35065-3 0  9993
2 47804  53.0545 308.3096 0001454  81.4610 278.6544 15.06404016201770
STARLINK-2386           
1 47805U 21018U   24301.34895809 -.00002239  00000+0 -13160-3 0  9993
2 47805  53.0542 308.9952 0001453  96.6286 263.4868 15.06370021201769
STARLINK-2387           
1 47806U 21018V   24301.75113640  .00010914  00000+0  75052-3 0  9990
2 47806  53.0548 321.9571 0001716  81.7156 278.4028 15.06396625201279
STARLINK-2388           
1 47807U 21018W   24301.40882538  .00010435  00000+0  71826-3 0  9995
2 47807  53.0540 298.4821 0001383 109.5546 250.5592 15.06405569201905
STARLINK-2389           
1 47808U 21018X   24301.43784911  .00006683  00000+0  46700-3 0  9998
2 47808  53.0556 323.3581 0001741 104.8505 255.2676 15.06411699201620
STARLINK-2391           
1 47810U 21018Z   24301.53413188  .00006063  00000+0  42547-3 0  9994
2 47810  53.0551 337.9228 0001797  86.6791 273.4404 15.06410481201429
STARLINK-2392           
1 47811U 21018AA  24301.44106012  .00003544  00000+0  25667-3 0  9995
2 47811  53.0535 308.3406 0001620  85.3413 274.7761 15.06400977201838
STARLINK-2393           
1 47812U 21018AB  24301.47886094  .00011006  00000+0  75665-3 0  9999
2 47812  53.0539 338.1713 0001553 101.6981 258.4182 15.06398303201354
STARLINK-2395           
1 47814U 21018AD  24301.48714089  .00015165  00000+0  10346-2 0  9990
2 47814  53.0541 328.1331 0001669  96.5374 263.5805 15.06407105201563
STARLINK-2396           
1 47815U 21018AE  24301.38622435 -.00002233  00000+0 -13106-3 0  9995
2 47815  53.0538 323.5826 0001447 103.0980 257.0171 15.06398233201553
STARLINK-2399           
1 47816U 21018AF  24301.46133503  .00004966  00000+0  35204-3 0  9994
2 47816  53.0546 328.2513 0001508  94.3772 265.7389 15.06399896201493
